[{"OBJECT_NAME":"GEISAT PRECURSOR","OBJECT_ID":"2023-084C","EPOCH":"2026-03-09T22:20:25.833120","MEAN_MOTION":15.33054389,"ECCENTRICITY":0.00051675,"INCLINATION":97.6055,"RA_OF_ASC_NODE":206.8263,"ARG_OF_PERICENTER":345.1842,"MEAN_ANOMALY":14.9247,"EPHEMERIS_TYPE":0,"CLASSIFICATION_TYPE":"U","NORAD_CAT_ID":56934,"ELEMENT_SET_NO":999,"REV_AT_EPOCH":15231,"BSTAR":0.00033857167,"MEAN_MOTION_DOT":0.00010736,"MEAN_MOTION_DDOT":0},{"OBJECT_NAME":"STARLINK-34831","OBJECT_ID":"2025-189Y","EPOCH":"2026-03-09T14:27:04.909824","MEAN_MOTION":15.30195782,"ECCENTRICITY":0.0001056,"INCLINATION":53.1574,"RA_OF_ASC_NODE":207.1267,"ARG_OF_PERICENTER":76.9728,"MEAN_ANOMALY":283.139,"EPHEMERIS_TYPE":0,"CLASSIFICATION_TYPE":"U","NORAD_CAT_ID":65345,"ELEMENT_SET_NO":999,"REV_AT_EPOCH":3110,"BSTAR":0.0014582,"MEAN_MOTION_DOT":0.00043074,"MEAN_MOTION_DDOT":0}]
